JILIN-1 GAOFEN 03D51    
1 54252U 22155B   26199.83834135  .00036844  00000+0  37379-3 0  9991
2 54252  97.6269 347.1581 0004591 218.3332 141.7601 15.65137183204690
JILIN-1 GAOFEN 03D53    
1 54253U 22155C   26199.84136606  .00020290  00000+0  30849-3 0  9994
2 54253  97.6258 342.3015 0005050 235.4692 124.6084 15.54575364204407
JILIN-1 GAOFEN 03D52    
1 54255U 22155E   26199.83327228  .00030559  00000+0  34733-3 0  9992
2 54255  97.6243 345.3455 0003979 232.1476 127.9421 15.62268469204647
JILIN-1 GAOFEN 03D50    
1 54690U 22167J   26199.81366417  .00005810  00000+0  17306-3 0  9998
2 54690  97.6862   8.9679 0004883   9.4768 350.6566 15.35105380200206
JILIN-1 GAOFEN 03D47    
1 54692U 22167L   26199.81925197  .00005503  00000+0  16774-3 0  9993
2 54692  97.6959  10.7123 0007485  17.4597 342.6901 15.34385261200199
JILIN-1 GAOFEN 03D49    
1 54694U 22167N   26199.82616889  .00006913  00000+0  18666-3 0  9999
2 54694  97.6836  11.3916 0005760  38.3207 321.8445 15.38093286200353
JILIN-1 GAOFEN 03D48    
1 54695U 22167P   26199.86963424  .00005969  00000+0  17360-3 0  9994
2 54695  97.6908  10.7535 0006120  17.7224 342.4231 15.35839146200256
JILIN GAOFEN OBJECT A   
1 68691U 26080A   26198.71960546  .00001863  00000+0  12114-3 0  9999
2 68691  97.6607 274.1951 0010995 325.9072  34.1449 15.09211185 14269
JILIN GAOFEN OBJECT B   
1 68692U 26080B   26199.82945984  .00002816  00000+0  18222-3 0  9997
2 68692  97.6582 275.3147 0015646 299.8212  60.1460 15.08918609 14430
JILIN GAOFEN OBJECT C   
1 68693U 26080C   26198.71884003  .00001932  00000+0  12646-3 0  9991
2 68693  97.6590 274.1766 0013165 305.9926  54.0081 15.08910570 14260
JILIN GAOFEN OBJECT D   
1 68694U 26080D   26199.83014674  .00002645  00000+0  17111-3 0  9999
2 68694  97.6646 275.3925 0016291 311.8622  48.1215 15.08977054 14415
JILIN GAOFEN OBJECT E   
1 68695U 26080E   26199.81192595  .00002386  00000+0  15506-3 0  9995
2 68695  97.6630 275.3936 0013538 322.8681  37.1609 15.08939641 14391
JILIN GAOFEN OBJECT F   
1 68696U 26080F   26199.81098587  .00002276  00000+0  14820-3 0  9998
2 68696  97.6602 275.3597 0012206 325.7734  34.2706 15.08923358 14390
JILIN GAOFEN OBJECT G   
1 68697U 26080G   26199.86339715  .00002110  00000+0  13763-3 0  9997
2 68697  97.6646 275.4984 0014361 321.9593  38.0620 15.08915688 14401
JILIN GAOFEN OBJECT H   
1 68698U 26080H   26198.73397818  .00002108  00000+0  13743-3 0  9996
2 68698  97.6635 274.3604 0014772 328.0239  32.0092 15.08938632 14230
