{"fetched_at":"2026-07-19T07:05:17.915Z","source":"https://celestrak.org/NORAD/elements/gp.php?NAME=JILIN&FORMAT=JSON","constellation":"jilin-1-gaofen","records":[{"OBJECT_NAME":"JILIN-1 GAOFEN 03D51","OBJECT_ID":"2022-155B","EPOCH":"2026-07-18T20:07:12.692640","CLASSIFICATION_TYPE":"U","MEAN_MOTION":15.65137183,"ECCENTRICITY":0.0004591,"INCLINATION":97.6269,"RA_OF_ASC_NODE":347.1581,"ARG_OF_PERICENTER":218.3332,"MEAN_ANOMALY":141.7601,"EPHEMERIS_TYPE":0,"NORAD_CAT_ID":54252,"ELEMENT_SET_NO":999,"REV_AT_EPOCH":20469,"BSTAR":0.00037379,"MEAN_MOTION_DOT":0.00036844,"MEAN_MOTION_DDOT":0},{"OBJECT_NAME":"JILIN-1 GAOFEN 03D53","OBJECT_ID":"2022-155C","EPOCH":"2026-07-18T20:11:34.027584","CLASSIFICATION_TYPE":"U","MEAN_MOTION":15.54575364,"ECCENTRICITY":0.000505,"INCLINATION":97.6258,"RA_OF_ASC_NODE":342.3015,"ARG_OF_PERICENTER":235.4692,"MEAN_ANOMALY":124.6084,"EPHEMERIS_TYPE":0,"NORAD_CAT_ID":54253,"ELEMENT_SET_NO":999,"REV_AT_EPOCH":20440,"BSTAR":0.00030849,"MEAN_MOTION_DOT":0.0002029,"MEAN_MOTION_DDOT":0},{"OBJECT_NAME":"JILIN-1 GAOFEN 03D52","OBJECT_ID":"2022-155E","EPOCH":"2026-07-18T19:59:54.724992","CLASSIFICATION_TYPE":"U","MEAN_MOTION":15.62268469,"ECCENTRICITY":0.0003979,"INCLINATION":97.6243,"RA_OF_ASC_NODE":345.3455,"ARG_OF_PERICENTER":232.1476,"MEAN_ANOMALY":127.9421,"EPHEMERIS_TYPE":0,"NORAD_CAT_ID":54255,"ELEMENT_SET_NO":999,"REV_AT_EPOCH":20464,"BSTAR":0.00034733,"MEAN_MOTION_DOT":0.00030559,"MEAN_MOTION_DDOT":0},{"OBJECT_NAME":"JILIN-1 GAOFEN 03D50","OBJECT_ID":"2022-167J","EPOCH":"2026-07-18T19:31:40.584288","CLASSIFICATION_TYPE":"U","MEAN_MOTION":15.3510538,"ECCENTRICITY":0.0004883,"INCLINATION":97.6862,"RA_OF_ASC_NODE":8.9679,"ARG_OF_PERICENTER":9.4768,"MEAN_ANOMALY":350.6566,"EPHEMERIS_TYPE":0,"NORAD_CAT_ID":54690,"ELEMENT_SET_NO":999,"REV_AT_EPOCH":20020,"BSTAR":0.00017306,"MEAN_MOTION_DOT":0.0000581,"MEAN_MOTION_DDOT":0},{"OBJECT_NAME":"JILIN-1 GAOFEN 03D47","OBJECT_ID":"2022-167L","EPOCH":"2026-07-18T19:39:43.370208","CLASSIFICATION_TYPE":"U","MEAN_MOTION":15.34385261,"ECCENTRICITY":0.0007485,"INCLINATION":97.6959,"RA_OF_ASC_NODE":10.7123,"ARG_OF_PERICENTER":17.4597,"MEAN_ANOMALY":342.6901,"EPHEMERIS_TYPE":0,"NORAD_CAT_ID":54692,"ELEMENT_SET_NO":999,"REV_AT_EPOCH":20019,"BSTAR":0.00016774,"MEAN_MOTION_DOT":0.00005503,"MEAN_MOTION_DDOT":0},{"OBJECT_NAME":"JILIN-1 GAOFEN 03D49","OBJECT_ID":"2022-167N","EPOCH":"2026-07-18T19:49:40.992096","CLASSIFICATION_TYPE":"U","MEAN_MOTION":15.38093286,"ECCENTRICITY":0.000576,"INCLINATION":97.6836,"RA_OF_ASC_NODE":11.3916,"ARG_OF_PERICENTER":38.3207,"MEAN_ANOMALY":321.8445,"EPHEMERIS_TYPE":0,"NORAD_CAT_ID":54694,"ELEMENT_SET_NO":999,"REV_AT_EPOCH":20035,"BSTAR":0.00018666,"MEAN_MOTION_DOT":0.00006913,"MEAN_MOTION_DDOT":0},{"OBJECT_NAME":"JILIN-1 GAOFEN 03D48","OBJECT_ID":"2022-167P","EPOCH":"2026-07-18T20:52:16.398336","CLASSIFICATION_TYPE":"U","MEAN_MOTION":15.35839146,"ECCENTRICITY":0.000612,"INCLINATION":97.6908,"RA_OF_ASC_NODE":10.7535,"ARG_OF_PERICENTER":17.7224,"MEAN_ANOMALY":342.4231,"EPHEMERIS_TYPE":0,"NORAD_CAT_ID":54695,"ELEMENT_SET_NO":999,"REV_AT_EPOCH":20025,"BSTAR":0.0001736,"MEAN_MOTION_DOT":0.00005969,"MEAN_MOTION_DDOT":0},{"OBJECT_NAME":"JILIN GAOFEN OBJECT A","OBJECT_ID":"2026-080A","EPOCH":"2026-07-17T17:16:13.911744","CLASSIFICATION_TYPE":"U","MEAN_MOTION":15.09211185,"ECCENTRICITY":0.00109955,"INCLINATION":97.6607,"RA_OF_ASC_NODE":274.1951,"ARG_OF_PERICENTER":325.9072,"MEAN_ANOMALY":34.1449,"EPHEMERIS_TYPE":0,"NORAD_CAT_ID":68691,"ELEMENT_SET_NO":999,"REV_AT_EPOCH":1426,"BSTAR":0.00012113513,"MEAN_MOTION_DOT":0.00001863,"MEAN_MOTION_DDOT":0},{"OBJECT_NAME":"JILIN GAOFEN OBJECT B","OBJECT_ID":"2026-080B","EPOCH":"2026-07-18T19:54:25.330176","CLASSIFICATION_TYPE":"U","MEAN_MOTION":15.08918609,"ECCENTRICITY":0.0015646,"INCLINATION":97.6582,"RA_OF_ASC_NODE":275.3147,"ARG_OF_PERICENTER":299.8212,"MEAN_ANOMALY":60.146,"EPHEMERIS_TYPE":0,"NORAD_CAT_ID":68692,"ELEMENT_SET_NO":999,"REV_AT_EPOCH":1443,"BSTAR":0.00018222,"MEAN_MOTION_DOT":0.00002816,"MEAN_MOTION_DDOT":0},{"OBJECT_NAME":"JILIN GAOFEN OBJECT C","OBJECT_ID":"2026-080C","EPOCH":"2026-07-17T17:15:07.778592","CLASSIFICATION_TYPE":"U","MEAN_MOTION":15.0891057,"ECCENTRICITY":0.00131651,"INCLINATION":97.659,"RA_OF_ASC_NODE":274.1766,"ARG_OF_PERICENTER":305.9926,"MEAN_ANOMALY":54.0081,"EPHEMERIS_TYPE":0,"NORAD_CAT_ID":68693,"ELEMENT_SET_NO":999,"REV_AT_EPOCH":1426,"BSTAR":0.00012645548,"MEAN_MOTION_DOT":0.00001932,"MEAN_MOTION_DDOT":0},{"OBJECT_NAME":"JILIN GAOFEN OBJECT D","OBJECT_ID":"2026-080D","EPOCH":"2026-07-18T19:55:24.678336","CLASSIFICATION_TYPE":"U","MEAN_MOTION":15.08977054,"ECCENTRICITY":0.0016291,"INCLINATION":97.6646,"RA_OF_ASC_NODE":275.3925,"ARG_OF_PERICENTER":311.8622,"MEAN_ANOMALY":48.1215,"EPHEMERIS_TYPE":0,"NORAD_CAT_ID":68694,"ELEMENT_SET_NO":999,"REV_AT_EPOCH":1441,"BSTAR":0.00017111,"MEAN_MOTION_DOT":0.00002645,"MEAN_MOTION_DDOT":0},{"OBJECT_NAME":"JILIN GAOFEN OBJECT E","OBJECT_ID":"2026-080E","EPOCH":"2026-07-18T19:29:10.402080","CLASSIFICATION_TYPE":"U","MEAN_MOTION":15.08939641,"ECCENTRICITY":0.0013538,"INCLINATION":97.663,"RA_OF_ASC_NODE":275.3936,"ARG_OF_PERICENTER":322.8681,"MEAN_ANOMALY":37.1609,"EPHEMERIS_TYPE":0,"NORAD_CAT_ID":68695,"ELEMENT_SET_NO":999,"REV_AT_EPOCH":1439,"BSTAR":0.00015506,"MEAN_MOTION_DOT":0.00002386,"MEAN_MOTION_DDOT":0},{"OBJECT_NAME":"JILIN GAOFEN OBJECT F","OBJECT_ID":"2026-080F","EPOCH":"2026-07-18T19:27:49.179168","CLASSIFICATION_TYPE":"U","MEAN_MOTION":15.08923358,"ECCENTRICITY":0.0012206,"INCLINATION":97.6602,"RA_OF_ASC_NODE":275.3597,"ARG_OF_PERICENTER":325.7734,"MEAN_ANOMALY":34.2706,"EPHEMERIS_TYPE":0,"NORAD_CAT_ID":68696,"ELEMENT_SET_NO":999,"REV_AT_EPOCH":1439,"BSTAR":0.0001482,"MEAN_MOTION_DOT":0.00002276,"MEAN_MOTION_DDOT":0},{"OBJECT_NAME":"JILIN GAOFEN OBJECT G","OBJECT_ID":"2026-080G","EPOCH":"2026-07-18T20:43:17.513760","CLASSIFICATION_TYPE":"U","MEAN_MOTION":15.08915688,"ECCENTRICITY":0.0014361,"INCLINATION":97.6646,"RA_OF_ASC_NODE":275.4984,"ARG_OF_PERICENTER":321.9593,"MEAN_ANOMALY":38.062,"EPHEMERIS_TYPE":0,"NORAD_CAT_ID":68697,"ELEMENT_SET_NO":999,"REV_AT_EPOCH":1440,"BSTAR":0.00013763,"MEAN_MOTION_DOT":0.0000211,"MEAN_MOTION_DDOT":0},{"OBJECT_NAME":"JILIN GAOFEN OBJECT H","OBJECT_ID":"2026-080H","EPOCH":"2026-07-17T17:36:55.714752","CLASSIFICATION_TYPE":"U","MEAN_MOTION":15.08938632,"ECCENTRICITY":0.00147724,"INCLINATION":97.6635,"RA_OF_ASC_NODE":274.3604,"ARG_OF_PERICENTER":328.0239,"MEAN_ANOMALY":32.0092,"EPHEMERIS_TYPE":0,"NORAD_CAT_ID":68698,"ELEMENT_SET_NO":999,"REV_AT_EPOCH":1423,"BSTAR":0.00013742567,"MEAN_MOTION_DOT":0.00002108,"MEAN_MOTION_DDOT":0}]}
